STARLINK-37398          
1 69249U 26117M   26164.24627009  .00133711  00000+0  67061-3 0  9994
2 69249  53.1593 263.1771 0001068  94.8678 265.2467 15.80870751  2356
STARLINK-37499          
1 69250U 26117N   26164.24301810  .00160093  00000+0  75954-3 0  9998
2 69250  53.1588 263.1551 0000729  97.3281 262.7825 15.81987036  2355
STARLINK-37489          
1 69251U 26117P   26164.24125744  .00248217  00000+0  11615-2 0  9997
2 69251  53.1588 263.1427 0000680  72.1630 287.9468 15.82028774  2351
STARLINK-37434          
1 69252U 26117Q   26164.23828706  .00251980  00000+0  11788-2 0  9997
2 69252  53.1586 263.1229 0001102  42.1456 317.9652 15.82025613  2351
STARLINK-37368          
1 69253U 26117R   26164.23154320  .00198267  00000+0  93506-3 0  9999
2 69253  53.1585 263.0762 0001327  34.9342 325.1768 15.82001875  2357
STARLINK-37517          
1 69254U 26117S   26164.23022305  .00186419  00000+0  88068-3 0  9990
2 69254  53.1584 263.0676 0001029  30.9604 329.1480 15.81999667  2356
STARLINK-37378          
1 69255U 26117T   26164.22989371  .00197014  00000+0  92938-3 0  9999
2 69255  53.1585 263.0656 0001093  66.2893 293.8245 15.82000080  2358
STARLINK-37396          
1 69256U 26117U   26164.25002315  .00232959  00000+0  10987-2 0  9998
2 69256  53.1582 262.9341 0001285 102.8596  25.9205 15.81903934  3614
STARLINK-37508          
1 69257U 26117V   26164.25002315  .00258112  00000+0  12796-2 0  9998
2 69257  53.1589 262.9257 0001130  71.2720  61.0960 15.80753227  3532
STARLINK-37276          
1 69258U 26117W   26164.25002315  .00069216  00000+0  35130-3 0  9992
2 69258  53.1587 262.6072 0001391  54.7452 231.0681 15.80879606  3539
STARLINK-37518          
1 69259U 26117X   26164.25002315  .00184915  00000+0  92317-3 0  9997
2 69259  53.1591 262.6225 0001262  97.1600 181.6822 15.80809465  3542
STARLINK-37478          
1 69260U 26117Y   26164.25002315  .00156451  00000+0  78382-3 0  9999
2 69260  53.1594 262.6252 0001239  82.0587 195.5043 15.80820010  3546
STARLINK-37506          
1 69261U 26117Z   26164.25002315  .00232863  00000+0  11560-2 0  9996
2 69261  53.1587 262.6189 0001117  87.3067 193.0356 15.80793217  3542
STARLINK-37503          
1 69262U 26117AA  26164.25002315  .00239852  00000+0  11903-2 0  9993
2 69262  53.1594 262.6156 0001197 102.5049 179.2953 15.80780650  3549
STARLINK-37502          
1 69263U 26117AB  26164.25002315  .00242806  00000+0  12039-2 0  9998
2 69263  53.1591 262.6088 0001494 104.9421 179.7947 15.80792285  3546
STARLINK-37486          
1 69264U 26117AC  26164.25002315  .00112065  00000+0  56455-3 0  9993
2 69264  53.1588 262.5948 0001314 102.4716 189.2063 15.80850688  3545
STARLINK-37435          
1 69265U 26117AD  26164.25002315  .00248513  00000+0  12325-2 0  9999
2 69265  53.1591 262.6112 0001227 100.5757 182.6344 15.80770789  3543
STARLINK-37464          
1 69266U 26117AE  26164.25002315  .00289535  00000+0  13572-2 0  9994
2 69266  53.1585 262.5910 0001295  79.7199 213.0237 15.81879799  3546
KUIPER-00282            
1 69267U 26118A   26164.24954603  .00019486  00000+0  57841-3 0  9995
2 69267  51.8589  72.5318 0011828 165.9637 194.1679 15.34743867  3379
KUIPER-00383            
1 69268U 26118B   26164.24651437  .00002738  00000+0  91231-4 0  9999
2 69268  51.8591  72.5126 0010701 167.1895 192.9365 15.34716441  3375
KUIPER-00527            
1 69269U 26118C   26164.24295601  .00020350  00000+0  59865-3 0  9993
2 69269  51.8615  72.4920 0010205 161.8447 198.2905 15.35014602  3377
KUIPER-00562            
1 69270U 26118D   26164.21910947  .00023122  00000+0  60699-3 0  9996
2 69270  51.8724  72.3333 0001840 101.1040 259.0154 15.38525016  3379
KUIPER-00570            
1 69271U 26118E   26164.24503198  .00018563  00000+0  54106-3 0  9995
2 69271  51.8576  72.5024 0011819 170.8003 189.3201 15.35353178  3376
KUIPER-00572            
1 69272U 26118F   26164.23421664  .00022052  00000+0  61002-3 0  9993
2 69272  51.8671  72.4394 0007333 156.2340 203.8986 15.36912962  3375
KUIPER-00581            
1 69273U 26118G   26164.23720140  .00022786  00000+0  63714-3 0  9991
2 69273  51.8652  72.4584 0009039 160.2574 199.8764 15.36543590  3460
KUIPER-00584            
1 69274U 26118H   26164.18202113  .00015739  00000+0  46277-3 0  9996
2 69274  51.8605  72.8321 0011470 174.2053 185.9068 15.35210800  3367
KUIPER-00587            
1 69275U 26118J   26164.23667455  .00021558  00000+0  60270-3 0  9992
2 69275  51.8625  72.4537 0008234 163.1138 197.0124 15.36591067  3376
KUIPER-00590            
1 69276U 26118K   26164.22601792  .00022963  00000+0  61684-3 0  9995
2 69276  51.8691  72.3862 0004338 144.6301 215.4975 15.37814580  3375
KUIPER-00592            
1 69277U 26118L   26164.22401448  .00023454  00000+0  62493-3 0  9997
2 69277  51.8713  72.3718 0003675 124.1444 235.9892 15.38055244  3375
KUIPER-00593            
1 69278U 26118M   26164.22456261  .00023813  00000+0  63646-3 0  9991
2 69278  51.8719  72.3743 0004055 140.7170 219.4112 15.37948163  3432
