OBJECT_NAME,OBJECT_ID,EPOCH,MEAN_MOTION,ECCENTRICITY,INCLINATION,RA_OF_ASC_NODE,ARG_OF_PERICENTER,MEAN_ANOMALY,EPHEMERIS_TYPE,CLASSIFICATION_TYPE,NORAD_CAT_ID,ELEMENT_SET_NO,REV_AT_EPOCH,BSTAR,MEAN_MOTION_DOT,MEAN_MOTION_DDOT
STARLINK-37398,2026-117M,2026-06-13T05:54:37.735776,15.80870751,.00010689,53.1593,263.1771,94.8678,265.2467,0,U,69249,999,235,.67060942E-3,.133711E-2,0
STARLINK-37499,2026-117N,2026-06-13T05:49:56.763840,15.81987036,.00007294,53.1588,263.1551,97.3281,262.7825,0,U,69250,999,235,.75954443E-3,.160093E-2,0
STARLINK-37489,2026-117P,2026-06-13T05:47:24.642816,15.82028774,.00006805,53.1588,263.1427,72.1630,287.9468,0,U,69251,999,235,.11615403E-2,.248217E-2,0
STARLINK-37434,2026-117Q,2026-06-13T05:43:08.001984,15.82025613,.00011023,53.1586,263.1229,42.1456,317.9652,0,U,69252,999,235,.11787755E-2,.25198E-2,0
STARLINK-37368,2026-117R,2026-06-13T05:33:25.332480,15.82001875,.00013275,53.1585,263.0762,34.9342,325.1768,0,U,69253,999,235,.93505744E-3,.198267E-2,0
STARLINK-37517,2026-117S,2026-06-13T05:31:31.271520,15.81999667,.00010293,53.1584,263.0676,30.9604,329.1480,0,U,69254,999,235,.88068157E-3,.186419E-2,0
STARLINK-37378,2026-117T,2026-06-13T05:31:02.816544,15.82000080,.00010936,53.1585,263.0656,66.2893,293.8245,0,U,69255,999,235,.92938317E-3,.197014E-2,0
STARLINK-37396,2026-117U,2026-06-13T06:00:02.000160,15.81903934,.00012859,53.1582,262.9341,102.8596,25.9205,0,U,69256,999,361,.10986567E-2,.232959E-2,0
STARLINK-37508,2026-117V,2026-06-13T06:00:02.000160,15.80753227,.00011305,53.1589,262.9257,71.2720,61.0960,0,U,69257,999,353,.12795668E-2,.258112E-2,0
STARLINK-37276,2026-117W,2026-06-13T06:00:02.000160,15.80879606,.00013912,53.1587,262.6072,54.7452,231.0681,0,U,69258,999,353,.35130446E-3,.69216E-3,0
STARLINK-37518,2026-117X,2026-06-13T06:00:02.000160,15.80809465,.00012628,53.1591,262.6225,97.1600,181.6822,0,U,69259,999,354,.92317329E-3,.184915E-2,0
STARLINK-37478,2026-117Y,2026-06-13T06:00:02.000160,15.80820010,.00012393,53.1594,262.6252,82.0587,195.5043,0,U,69260,999,354,.78382032E-3,.156451E-2,0
STARLINK-37506,2026-117Z,2026-06-13T06:00:02.000160,15.80793217,.00011172,53.1587,262.6189,87.3067,193.0356,0,U,69261,999,354,.11560258E-2,.232863E-2,0
STARLINK-37503,2026-117AA,2026-06-13T06:00:02.000160,15.80780650,.00011975,53.1594,262.6156,102.5049,179.2953,0,U,69262,999,354,.11903326E-2,.239852E-2,0
STARLINK-37502,2026-117AB,2026-06-13T06:00:02.000160,15.80792285,.00014949,53.1591,262.6088,104.9421,179.7947,0,U,69263,999,354,.12038944E-2,.242806E-2,0
STARLINK-37486,2026-117AC,2026-06-13T06:00:02.000160,15.80850688,.00013145,53.1588,262.5948,102.4716,189.2063,0,U,69264,999,354,.56454608E-3,.112065E-2,0
STARLINK-37435,2026-117AD,2026-06-13T06:00:02.000160,15.80770789,.00012279,53.1591,262.6112,100.5757,182.6344,0,U,69265,999,354,.12325026E-2,.248513E-2,0
STARLINK-37464,2026-117AE,2026-06-13T06:00:02.000160,15.81879799,.0001295,53.1585,262.5910,79.7199,213.0237,0,U,69266,999,354,.13572221E-2,.289535E-2,0
KUIPER-00282,2026-118A,2026-06-13T05:59:20.776992,15.34743867,.00118288,51.8589,72.5318,165.9637,194.1679,0,U,69267,999,337,.57841309E-3,.19486E-3,0
KUIPER-00383,2026-118B,2026-06-13T05:54:58.841568,15.34716441,.00107017,51.8591,72.5126,167.1895,192.9365,0,U,69268,999,337,.91230855E-4,.2738E-4,0
KUIPER-00527,2026-118C,2026-06-13T05:49:51.399264,15.35014602,.00102057,51.8615,72.4920,161.8447,198.2905,0,U,69269,999,337,.59865285E-3,.2035E-3,0
KUIPER-00562,2026-118D,2026-06-13T05:15:31.058208,15.38525016,.00018404,51.8724,72.3333,101.1040,259.0154,0,U,69270,999,337,.60698987E-3,.23122E-3,0
KUIPER-00570,2026-118E,2026-06-13T05:52:50.763072,15.35353178,.00118192,51.8576,72.5024,170.8003,189.3201,0,U,69271,999,337,.54105956E-3,.18563E-3,0
KUIPER-00572,2026-118F,2026-06-13T05:37:16.317696,15.36912962,.00073337,51.8671,72.4394,156.2340,203.8986,0,U,69272,999,337,.61001692E-3,.22052E-3,0
KUIPER-00581,2026-118G,2026-06-13T05:41:34.200960,15.36543590,.00090396,51.8652,72.4584,160.2574,199.8764,0,U,69273,999,346,.637144E-3,.22786E-3,0
KUIPER-00584,2026-118H,2026-06-13T04:22:06.625632,15.35210800,.00114704,51.8605,72.8321,174.2053,185.9068,0,U,69274,999,336,.46276591E-3,.15739E-3,0
KUIPER-00587,2026-118J,2026-06-13T05:40:48.681120,15.36591067,.00082348,51.8625,72.4537,163.1138,197.0124,0,U,69275,999,337,.60270398E-3,.21558E-3,0
KUIPER-00590,2026-118K,2026-06-13T05:25:27.948288,15.37814580,.00043381,51.8691,72.3862,144.6301,215.4975,0,U,69276,999,337,.61683779E-3,.22963E-3,0
KUIPER-00592,2026-118L,2026-06-13T05:22:34.851072,15.38055244,.00036754,51.8713,72.3718,124.1444,235.9892,0,U,69277,999,337,.62493025E-3,.23454E-3,0
KUIPER-00593,2026-118M,2026-06-13T05:23:22.209504,15.37948163,.00040551,51.8719,72.3743,140.7170,219.4112,0,U,69278,999,343,.63646236E-3,.23813E-3,0
